<?xml version="1.0" encoding="UTF-8"?>
<osm version="0.6" generator="openstreetmap-cgimap 2.1.0 (82696 spike-06.openstreetmap.org)" copyright="OpenStreetMap and contributors" attribution="http://www.openstreetmap.org/copyright" license="http://opendatacommons.org/licenses/odbl/1-0/">
 <node id="3718987556" visible="true" version="4" changeset="59645407" timestamp="2018-06-07T18:16:57Z" user="Ironman324" uid="7496060" lat="37.8323305" lon="-122.4807209"/>
 <node id="5673261809" visible="true" version="2" changeset="101472533" timestamp="2021-03-22T05:45:15Z" user="KindredCoda" uid="14293" lat="37.8081298" lon="-122.4764734"/>
 <node id="5673261810" visible="true" version="1" changeset="59645407" timestamp="2018-06-07T18:16:56Z" user="Ironman324" uid="7496060" lat="37.8322348" lon="-122.4806263"/>
 <node id="5673261811" visible="true" version="1" changeset="59645407" timestamp="2018-06-07T18:16:56Z" user="Ironman324" uid="7496060" lat="37.8321248" lon="-122.4805165"/>
 <node id="5673261812" visible="true" version="1" changeset="59645407" timestamp="2018-06-07T18:16:56Z" user="Ironman324" uid="7496060" lat="37.8320169" lon="-122.4804192"/>
 <node id="5673261813" visible="true" version="1" changeset="59645407" timestamp="2018-06-07T18:16:56Z" user="Ironman324" uid="7496060" lat="37.8319101" lon="-122.4803329"/>
 <node id="5673261814" visible="true" version="1" changeset="59645407" timestamp="2018-06-07T18:16:56Z" user="Ironman324" uid="7496060" lat="37.8317916" lon="-122.4802440"/>
 <node id="5673261815" visible="true" version="1" changeset="59645407" timestamp="2018-06-07T18:16:56Z" user="Ironman324" uid="7496060" lat="37.8316580" lon="-122.4801540"/>
 <node id="5673261816" visible="true" version="1" changeset="59645407" timestamp="2018-06-07T18:16:56Z" user="Ironman324" uid="7496060" lat="37.8315390" lon="-122.4800835"/>
 <node id="5673261817" visible="true" version="1" changeset="59645407" timestamp="2018-06-07T18:16:56Z" user="Ironman324" uid="7496060" lat="37.8314100" lon="-122.4800179"/>
 <node id="5673261818" visible="true" version="1" changeset="59645407" timestamp="2018-06-07T18:16:56Z" user="Ironman324" uid="7496060" lat="37.8312850" lon="-122.4799630"/>
 <node id="5673261819" visible="true" version="1" changeset="59645407" timestamp="2018-06-07T18:16:56Z" user="Ironman324" uid="7496060" lat="37.8311552" lon="-122.4799128"/>
 <node id="5673261820" visible="true" version="1" changeset="59645407" timestamp="2018-06-07T18:16:56Z" user="Ironman324" uid="7496060" lat="37.8310281" lon="-122.4798699"/>
 <node id="5673262421" visible="true" version="1" changeset="59645407" timestamp="2018-06-07T18:16:56Z" user="Ironman324" uid="7496060" lat="37.8308916" lon="-122.4798350"/>
 <node id="5673262422" visible="true" version="1" changeset="59645407" timestamp="2018-06-07T18:16:56Z" user="Ironman324" uid="7496060" lat="37.8307636" lon="-122.4798080"/>
 <node id="5673262423" visible="true" version="1" changeset="59645407" timestamp="2018-06-07T18:16:56Z" user="Ironman324" uid="7496060" lat="37.8306289" lon="-122.4797880"/>
 <node id="5673262424" visible="true" version="1" changeset="59645407" timestamp="2018-06-07T18:16:56Z" user="Ironman324" uid="7496060" lat="37.8304700" lon="-122.4797679"/>
 <node id="5673262425" visible="true" version="1" changeset="59645407" timestamp="2018-06-07T18:16:56Z" user="Ironman324" uid="7496060" lat="37.8303213" lon="-122.4797496"/>
 <node id="5673262426" visible="true" version="1" changeset="59645407" timestamp="2018-06-07T18:16:56Z" user="Ironman324" uid="7496060" lat="37.8096796" lon="-122.4773342"/>
 <node id="5673262427" visible="true" version="1" changeset="59645407" timestamp="2018-06-07T18:16:56Z" user="Ironman324" uid="7496060" lat="37.8095737" lon="-122.4773180"/>
 <node id="5673262428" visible="true" version="1" changeset="59645407" timestamp="2018-06-07T18:16:56Z" user="Ironman324" uid="7496060" lat="37.8094654" lon="-122.4772959"/>
 <node id="5673262429" visible="true" version="1" changeset="59645407" timestamp="2018-06-07T18:16:56Z" user="Ironman324" uid="7496060" lat="37.8093561" lon="-122.4772686"/>
 <node id="5673262430" visible="true" version="1" changeset="59645407" timestamp="2018-06-07T18:16:56Z" user="Ironman324" uid="7496060" lat="37.8092547" lon="-122.4772362"/>
 <node id="5673262431" visible="true" version="1" changeset="59645407" timestamp="2018-06-07T18:16:56Z" user="Ironman324" uid="7496060" lat="37.8091509" lon="-122.4771986"/>
 <node id="5673262432" visible="true" version="1" changeset="59645407" timestamp="2018-06-07T18:16:56Z" user="Ironman324" uid="7496060" lat="37.8090364" lon="-122.4771476"/>
 <node id="5673262433" visible="true" version="1" changeset="59645407" timestamp="2018-06-07T18:16:56Z" user="Ironman324" uid="7496060" lat="37.8089114" lon="-122.4770846"/>
 <node id="5673262434" visible="true" version="1" changeset="59645407" timestamp="2018-06-07T18:16:56Z" user="Ironman324" uid="7496060" lat="37.8087969" lon="-122.4770203"/>
 <node id="5673262435" visible="true" version="1" changeset="59645407" timestamp="2018-06-07T18:16:57Z" user="Ironman324" uid="7496060" lat="37.8086823" lon="-122.4769471"/>
 <node id="5673262436" visible="true" version="1" changeset="59645407" timestamp="2018-06-07T18:16:57Z" user="Ironman324" uid="7496060" lat="37.8085753" lon="-122.4768697"/>
 <node id="5673262437" visible="true" version="1" changeset="59645407" timestamp="2018-06-07T18:16:57Z" user="Ironman324" uid="7496060" lat="37.8084684" lon="-122.4767855"/>
 <node id="5673262438" visible="true" version="1" changeset="59645407" timestamp="2018-06-07T18:16:57Z" user="Ironman324" uid="7496060" lat="37.8083516" lon="-122.4766840"/>
 <node id="5673262439" visible="true" version="2" changeset="101472533" timestamp="2021-03-22T05:45:15Z" user="KindredCoda" uid="14293" lat="37.8082433" lon="-122.4765844"/>
 <node id="10031652620" visible="true" version="1" changeset="126300248" timestamp="2022-09-17T13:56:45Z" user="EvesAngle" uid="6411779" lat="37.8317361" lon="-122.4802066"/>
 <way id="595194543" visible="true" version="9" changeset="169179581" timestamp="2025-07-20T05:44:51Z" user="OrdinaryScarlett" uid="9159276">
  <nd ref="5673261809"/>
  <nd ref="5673262439"/>
  <nd ref="5673262438"/>
  <nd ref="5673262437"/>
  <nd ref="5673262436"/>
  <nd ref="5673262435"/>
  <nd ref="5673262434"/>
  <nd ref="5673262433"/>
  <nd ref="5673262432"/>
  <nd ref="5673262431"/>
  <nd ref="5673262430"/>
  <nd ref="5673262429"/>
  <nd ref="5673262428"/>
  <nd ref="5673262427"/>
  <nd ref="5673262426"/>
  <nd ref="5673262425"/>
  <nd ref="5673262424"/>
  <nd ref="5673262423"/>
  <nd ref="5673262422"/>
  <nd ref="5673262421"/>
  <nd ref="5673261820"/>
  <nd ref="5673261819"/>
  <nd ref="5673261818"/>
  <nd ref="5673261817"/>
  <nd ref="5673261816"/>
  <nd ref="5673261815"/>
  <nd ref="10031652620"/>
  <nd ref="5673261814"/>
  <nd ref="5673261813"/>
  <nd ref="5673261812"/>
  <nd ref="5673261811"/>
  <nd ref="5673261810"/>
  <nd ref="3718987556"/>
  <tag k="bicycle" v="no"/>
  <tag k="bridge" v="yes"/>
  <tag k="bridge:name" v="Golden Gate"/>
  <tag k="bridge:structure" v="suspension"/>
  <tag k="colour" v="orange"/>
  <tag k="cycleway" v="no"/>
  <tag k="foot" v="no"/>
  <tag k="hgv" v="designated"/>
  <tag k="highway" v="motorway"/>
  <tag k="historic" v="yes"/>
  <tag k="lanes" v="3"/>
  <tag k="lanes:conditional" v="4 @ (Tu-Fr 15:30-17:00)"/>
  <tag k="layer" v="1"/>
  <tag k="lit" v="yes"/>
  <tag k="maxspeed" v="45 mph"/>
  <tag k="name" v="Golden Gate Bridge"/>
  <tag k="NHS" v="STRAHNET"/>
  <tag k="oneway" v="yes"/>
  <tag k="ref" v="US 101"/>
  <tag k="sidewalk" v="separate"/>
  <tag k="source" v="Bing"/>
  <tag k="source:hgv" v="https://sfplanninggis.org/TIM/?search=3591024#searchbox"/>
  <tag k="start_date" v="1937-05-27"/>
  <tag k="surface" v="asphalt"/>
  <tag k="tiger:cfcc" v="A25;A11;A29"/>
  <tag k="tiger:name_base" v="United States Highway 101;Redwood;Golden Gate"/>
  <tag k="tiger:name_base_1" v="Golden Gate"/>
  <tag k="tiger:name_type" v="Hwy;Brg"/>
  <tag k="tiger:name_type_1" v="Brg"/>
  <tag k="toll" v="no"/>
  <tag k="wikidata" v="Q44440"/>
  <tag k="wikipedia" v="en:Golden Gate Bridge"/>
 </way>
</osm>
